[{"OBJECT_NAME":"STARLINK-35731","OBJECT_ID":"2025-244Y","EPOCH":"2026-03-09T16:58:01.082208","MEAN_MOTION":15.30216386,"ECCENTRICITY":0.00012132,"INCLINATION":53.1598,"RA_OF_ASC_NODE":229.7217,"ARG_OF_PERICENTER":65.7768,"MEAN_ANOMALY":294.3359,"EPHEMERIS_TYPE":0,"CLASSIFICATION_TYPE":"U","NORAD_CAT_ID":66228,"ELEMENT_SET_NO":999,"REV_AT_EPOCH":2166,"BSTAR":0.00069964213,"MEAN_MOTION_DOT":0.0002043,"MEAN_MOTION_DDOT":0},{"OBJECT_NAME":"ATLAS CENTAUR 2 DEB","OBJECT_ID":"1963-047H","EPOCH":"2026-03-09T12:19:05.186208","MEAN_MOTION":13.85184807,"ECCENTRICITY":0.06358941,"INCLINATION":30.4264,"RA_OF_ASC_NODE":268.0385,"ARG_OF_PERICENTER":278.88,"MEAN_ANOMALY":74.0363,"EPHEMERIS_TYPE":0,"CLASSIFICATION_TYPE":"U","NORAD_CAT_ID":739,"ELEMENT_SET_NO":999,"REV_AT_EPOCH":12755,"BSTAR":7.4246784e-5,"MEAN_MOTION_DOT":5.52e-6,"MEAN_MOTION_DDOT":0}]
